ONEWEB-0233             
1 48795U 21045AE  26116.45196516 -.00000022  00000+0 -91733-4 0  9990
2 48795  87.8949 269.5536 0001853  87.1501 272.9841 13.15549590237495
ONEWEB-0190             
1 48796U 21045AF  26116.43942603 -.00000020  00000+0 -87932-4 0  9999
2 48796  87.8950 269.5173 0002241  80.8341 279.3043 13.15548109237567
ONEWEB-0236             
1 48797U 21045AG  26116.45685750 -.00000036  00000+0 -13047-3 0  9991
2 48797  87.8948 269.5247 0001678  99.6159 260.5161 13.15547790237451
ONEWEB-0248             
1 48798U 21045AH  26116.39348241  .00001044  00000+0  27378-2 0  9995
2 48798  87.8955 269.5154 0001834  81.5364 278.5974 13.15545893237609
ONEWEB-0225             
1 48799U 21045AJ  26116.41564852  .00000205  00000+0  51017-3 0  9993
2 48799  87.8950 269.5230 0002134  82.6726 277.4646 13.15549166237610
ONEWEB-0215             
1 48800U 21045AK  26116.46161448 -.00000057  00000+0 -18496-3 0  9996
2 48800  87.8961 269.4916 0002108  77.7464 282.3902 13.15547652237494
ONEWEB-0216             
1 48801U 21045AL  26116.47112147  .00000113  00000+0  26711-3 0  9990
2 48801  87.8956 269.5064 0001859  98.7318 261.4023 13.15548642237501
ONEWEB-0239             
1 48802U 21045AM  26116.47586584  .00000151  00000+0  36625-3 0  9998
2 48802  87.8947 269.5166 0001941  71.8335 288.3006 13.15548889237544
ONEWEB-0249             
1 48967U 21060A   26116.29896375  .00000027  00000+0  37083-4 0  9991
2 48967  87.9081 239.0829 0001831  98.8423 261.2915 13.16594672232781
ONEWEB-0250             
1 48968U 21060B   26116.31017345  .00000100  00000+0  19872-3 0  9994
2 48968  87.9085 237.0054 0000935  90.9577 269.1666 13.25830786233343
ONEWEB-0252             
1 48970U 21060D   26116.32984692  .00000149  00000+0  35519-3 0  9995
2 48970  87.9083 239.0690 0002092 102.4761 257.6604 13.16594624232837
ONEWEB-0253             
1 48971U 21060E   26116.31875245  .00000131  00000+0  30777-3 0  9990
2 48971  87.9082 239.0769 0001834  98.6315 261.5024 13.16594326232769
ONEWEB-0254             
1 48972U 21060F   26116.32826566  .00000176  00000+0  42735-3 0  9990
2 48972  87.9083 239.0714 0001827  90.7296 269.4045 13.16594594232761
ONEWEB-0255             
1 48973U 21060G   26116.29025301 -.00000029  00000+0 -10852-3 0  9999
2 48973  87.9081 239.0862 0001879  95.4112 264.7233 13.16595914232832
ONEWEB-0256             
1 48974U 21060H   26116.31638613  .00000105  00000+0  24131-3 0  9997
2 48974  87.9073 239.0888 0001923 104.1293 256.0051 13.16592753232807
ONEWEB-0257             
1 48975U 21060J   26116.34884641  .00000000  00000+0 -33276-4 0  9991
2 48975  87.9082 239.0663 0001961  97.5950 262.5403 13.16595266232766
