[{"OBJECT_NAME":"ONEWEB-0233","OBJECT_ID":"2021-045AE","EPOCH":"2026-04-26T10:50:49.789824","MEAN_MOTION":13.1554959,"ECCENTRICITY":0.0001853,"INCLINATION":87.8949,"RA_OF_ASC_NODE":269.5536,"ARG_OF_PERICENTER":87.1501,"MEAN_ANOMALY":272.9841,"EPHEMERIS_TYPE":0,"CLASSIFICATION_TYPE":"U","NORAD_CAT_ID":48795,"ELEMENT_SET_NO":999,"REV_AT_EPOCH":23749,"BSTAR":-9.1733e-05,"MEAN_MOTION_DOT":-2.2e-07,"MEAN_MOTION_DDOT":0.0},{"OBJECT_NAME":"ONEWEB-0190","OBJECT_ID":"2021-045AF","EPOCH":"2026-04-26T10:32:46.408992","MEAN_MOTION":13.15548109,"ECCENTRICITY":0.0002241,"INCLINATION":87.895,"RA_OF_ASC_NODE":269.5173,"ARG_OF_PERICENTER":80.8341,"MEAN_ANOMALY":279.3043,"EPHEMERIS_TYPE":0,"CLASSIFICATION_TYPE":"U","NORAD_CAT_ID":48796,"ELEMENT_SET_NO":999,"REV_AT_EPOCH":23756,"BSTAR":-8.7932e-05,"MEAN_MOTION_DOT":-2e-07,"MEAN_MOTION_DDOT":0.0},{"OBJECT_NAME":"ONEWEB-0236","OBJECT_ID":"2021-045AG","EPOCH":"2026-04-26T10:57:52.488000","MEAN_MOTION":13.1554779,"ECCENTRICITY":0.0001678,"INCLINATION":87.8948,"RA_OF_ASC_NODE":269.5247,"ARG_OF_PERICENTER":99.6159,"MEAN_ANOMALY":260.5161,"EPHEMERIS_TYPE":0,"CLASSIFICATION_TYPE":"U","NORAD_CAT_ID":48797,"ELEMENT_SET_NO":999,"REV_AT_EPOCH":23745,"BSTAR":-0.00013047000000000002,"MEAN_MOTION_DOT":-3.6e-07,"MEAN_MOTION_DDOT":0.0},{"OBJECT_NAME":"ONEWEB-0248","OBJECT_ID":"2021-045AH","EPOCH":"2026-04-26T09:26:36.880224","MEAN_MOTION":13.15545893,"ECCENTRICITY":0.0001834,"INCLINATION":87.8955,"RA_OF_ASC_NODE":269.5154,"ARG_OF_PERICENTER":81.5364,"MEAN_ANOMALY":278.5974,"EPHEMERIS_TYPE":0,"CLASSIFICATION_TYPE":"U","NORAD_CAT_ID":48798,"ELEMENT_SET_NO":999,"REV_AT_EPOCH":23760,"BSTAR":0.0027378000000000003,"MEAN_MOTION_DOT":1.044e-05,"MEAN_MOTION_DDOT":0.0},{"OBJECT_NAME":"ONEWEB-0225","OBJECT_ID":"2021-045AJ","EPOCH":"2026-04-26T09:58:32.032128","MEAN_MOTION":13.15549166,"ECCENTRICITY":0.0002134,"INCLINATION":87.895,"RA_OF_ASC_NODE":269.523,"ARG_OF_PERICENTER":82.6726,"MEAN_ANOMALY":277.4646,"EPHEMERIS_TYPE":0,"CLASSIFICATION_TYPE":"U","NORAD_CAT_ID":48799,"ELEMENT_SET_NO":999,"REV_AT_EPOCH":23761,"BSTAR":0.00051017,"MEAN_MOTION_DOT":2.05e-06,"MEAN_MOTION_DDOT":0.0},{"OBJECT_NAME":"ONEWEB-0215","OBJECT_ID":"2021-045AK","EPOCH":"2026-04-26T11:04:43.491072","MEAN_MOTION":13.15547652,"ECCENTRICITY":0.0002108,"INCLINATION":87.8961,"RA_OF_ASC_NODE":269.4916,"ARG_OF_PERICENTER":77.7464,"MEAN_ANOMALY":282.3902,"EPHEMERIS_TYPE":0,"CLASSIFICATION_TYPE":"U","NORAD_CAT_ID":48800,"ELEMENT_SET_NO":999,"REV_AT_EPOCH":23749,"BSTAR":-0.00018496000000000002,"MEAN_MOTION_DOT":-5.7e-07,"MEAN_MOTION_DDOT":0.0},{"OBJECT_NAME":"ONEWEB-0216","OBJECT_ID":"2021-045AL","EPOCH":"2026-04-26T11:18:24.895008","MEAN_MOTION":13.15548642,"ECCENTRICITY":0.0001859,"INCLINATION":87.8956,"RA_OF_ASC_NODE":269.5064,"ARG_OF_PERICENTER":98.7318,"MEAN_ANOMALY":261.4023,"EPHEMERIS_TYPE":0,"CLASSIFICATION_TYPE":"U","NORAD_CAT_ID":48801,"ELEMENT_SET_NO":999,"REV_AT_EPOCH":23750,"BSTAR":0.00026711000000000004,"MEAN_MOTION_DOT":1.13e-06,"MEAN_MOTION_DDOT":0.0},{"OBJECT_NAME":"ONEWEB-0239","OBJECT_ID":"2021-045AM","EPOCH":"2026-04-26T11:25:14.808576","MEAN_MOTION":13.15548889,"ECCENTRICITY":0.0001941,"INCLINATION":87.8947,"RA_OF_ASC_NODE":269.5166,"ARG_OF_PERICENTER":71.8335,"MEAN_ANOMALY":288.3006,"EPHEMERIS_TYPE":0,"CLASSIFICATION_TYPE":"U","NORAD_CAT_ID":48802,"ELEMENT_SET_NO":999,"REV_AT_EPOCH":23754,"BSTAR":0.00036625000000000004,"MEAN_MOTION_DOT":1.51e-06,"MEAN_MOTION_DDOT":0.0},{"OBJECT_NAME":"ONEWEB-0249","OBJECT_ID":"2021-060A","EPOCH":"2026-04-26T07:10:30.468000","MEAN_MOTION":13.16594672,"ECCENTRICITY":0.0001831,"INCLINATION":87.9081,"RA_OF_ASC_NODE":239.0829,"ARG_OF_PERICENTER":98.8423,"MEAN_ANOMALY":261.2915,"EPHEMERIS_TYPE":0,"CLASSIFICATION_TYPE":"U","NORAD_CAT_ID":48967,"ELEMENT_SET_NO":999,"REV_AT_EPOCH":23278,"BSTAR":3.7083000000000004e-05,"MEAN_MOTION_DOT":2.7e-07,"MEAN_MOTION_DDOT":0.0},{"OBJECT_NAME":"ONEWEB-0250","OBJECT_ID":"2021-060B","EPOCH":"2026-04-26T07:26:38.986080","MEAN_MOTION":13.25830786,"ECCENTRICITY":9.35e-05,"INCLINATION":87.9085,"RA_OF_ASC_NODE":237.0054,"ARG_OF_PERICENTER":90.9577,"MEAN_ANOMALY":269.1666,"EPHEMERIS_TYPE":0,"CLASSIFICATION_TYPE":"U","NORAD_CAT_ID":48968,"ELEMENT_SET_NO":999,"REV_AT_EPOCH":23334,"BSTAR":0.00019872000000000002,"MEAN_MOTION_DOT":1e-06,"MEAN_MOTION_DDOT":0.0},{"OBJECT_NAME":"ONEWEB-0252","OBJECT_ID":"2021-060D","EPOCH":"2026-04-26T07:54:58.773888","MEAN_MOTION":13.16594624,"ECCENTRICITY":0.0002092,"INCLINATION":87.9083,"RA_OF_ASC_NODE":239.069,"ARG_OF_PERICENTER":102.4761,"MEAN_ANOMALY":257.6604,"EPHEMERIS_TYPE":0,"CLASSIFICATION_TYPE":"U","NORAD_CAT_ID":48970,"ELEMENT_SET_NO":999,"REV_AT_EPOCH":23283,"BSTAR":0.00035519,"MEAN_MOTION_DOT":1.49e-06,"MEAN_MOTION_DDOT":0.0},{"OBJECT_NAME":"ONEWEB-0253","OBJECT_ID":"2021-060E","EPOCH":"2026-04-26T07:39:00.211680","MEAN_MOTION":13.16594326,"ECCENTRICITY":0.0001834,"INCLINATION":87.9082,"RA_OF_ASC_NODE":239.0769,"ARG_OF_PERICENTER":98.6315,"MEAN_ANOMALY":261.5024,"EPHEMERIS_TYPE":0,"CLASSIFICATION_TYPE":"U","NORAD_CAT_ID":48971,"ELEMENT_SET_NO":999,"REV_AT_EPOCH":23276,"BSTAR":0.00030777,"MEAN_MOTION_DOT":1.31e-06,"MEAN_MOTION_DDOT":0.0},{"OBJECT_NAME":"ONEWEB-0254","OBJECT_ID":"2021-060F","EPOCH":"2026-04-26T07:52:42.153024","MEAN_MOTION":13.16594594,"ECCENTRICITY":0.0001827,"INCLINATION":87.9083,"RA_OF_ASC_NODE":239.0714,"ARG_OF_PERICENTER":90.7296,"MEAN_ANOMALY":269.4045,"EPHEMERIS_TYPE":0,"CLASSIFICATION_TYPE":"U","NORAD_CAT_ID":48972,"ELEMENT_SET_NO":999,"REV_AT_EPOCH":23276,"BSTAR":0.00042735,"MEAN_MOTION_DOT":1.76e-06,"MEAN_MOTION_DDOT":0.0},{"OBJECT_NAME":"ONEWEB-0255","OBJECT_ID":"2021-060G","EPOCH":"2026-04-26T06:57:57.860064","MEAN_MOTION":13.16595914,"ECCENTRICITY":0.0001879,"INCLINATION":87.9081,"RA_OF_ASC_NODE":239.0862,"ARG_OF_PERICENTER":95.4112,"MEAN_ANOMALY":264.7233,"EPHEMERIS_TYPE":0,"CLASSIFICATION_TYPE":"U","NORAD_CAT_ID":48973,"ELEMENT_SET_NO":999,"REV_AT_EPOCH":23283,"BSTAR":-0.00010852000000000001,"MEAN_MOTION_DOT":-2.9e-07,"MEAN_MOTION_DDOT":0.0},{"OBJECT_NAME":"ONEWEB-0256","OBJECT_ID":"2021-060H","EPOCH":"2026-04-26T07:35:35.761632","MEAN_MOTION":13.16592753,"ECCENTRICITY":0.0001923,"INCLINATION":87.9073,"RA_OF_ASC_NODE":239.0888,"ARG_OF_PERICENTER":104.1293,"MEAN_ANOMALY":256.0051,"EPHEMERIS_TYPE":0,"CLASSIFICATION_TYPE":"U","NORAD_CAT_ID":48974,"ELEMENT_SET_NO":999,"REV_AT_EPOCH":23280,"BSTAR":0.00024131,"MEAN_MOTION_DOT":1.05e-06,"MEAN_MOTION_DDOT":0.0},{"OBJECT_NAME":"ONEWEB-0257","OBJECT_ID":"2021-060J","EPOCH":"2026-04-26T08:22:20.329824","MEAN_MOTION":13.16595266,"ECCENTRICITY":0.0001961,"INCLINATION":87.9082,"RA_OF_ASC_NODE":239.0663,"ARG_OF_PERICENTER":97.595,"MEAN_ANOMALY":262.5403,"EPHEMERIS_TYPE":0,"CLASSIFICATION_TYPE":"U","NORAD_CAT_ID":48975,"ELEMENT_SET_NO":999,"REV_AT_EPOCH":23276,"BSTAR":-3.3276000000000005e-05,"MEAN_MOTION_DOT":0.0,"MEAN_MOTION_DDOT":0.0}]